{"type": "FeatureCollection", "features": [ {"type": "Feature", "properties": {"norad_id": 35674, "name": "COSMOS 2251 DEB", "group": "cosmos-2251-debris", "lat": -31.894855189164787, "lon": 158.72785013985953, "alt_km": 782.6443310983177, "timestamp": "2025-12-06T09:34:17.310629+00:00", "meta": {"OBJECT_NAME": "COSMOS 2251 DEB", "OBJECT_ID": "1993-036APR", "EPOCH": "2025-12-05T09:28:34.155264", "MEAN_MOTION": 14.5401714, "ECCENTRICITY": 0.00959785, "INCLINATION": 74.0594, "RA_OF_ASC_NODE": 330.3767, "ARG_OF_PERICENTER": 16.8734, "MEAN_ANOMALY": 343.5582, "EPHEMERIS_TYPE": 0, "CLASSIFICATION_TYPE": "U", "NORAD_CAT_ID": 35674, "ELEMENT_SET_NO": 999, "REV_AT_EPOCH": 86004, "BSTAR": 0.0032725426, "MEAN_MOTION_DOT": 0.00014674, "MEAN_MOTION_DDOT": 0}, "tle": {"line1": "1 35674U 93036APR 25339.39483976  .00014674  00000+0  32725-2 0  9999", "line2": "2 35674  74.0594 330.3767 0095978  16.8734 343.5582 14.54017140860047"}}, "geometry": {"type": "Point", "coordinates": [158.72785013985953, -31.894855189164787]}}, {"type": "Feature", "properties": {"norad_id": 35703, "name": "COSMOS 2251 DEB", "group": "cosmos-2251-debris", "lat": 63.873888262207615, "lon": 91.14569122230394, "alt_km": 566.773964092572, "timestamp": "2025-12-06T09:34:17.310639+00:00", "meta": {"OBJECT_NAME": "COSMOS 2251 DEB", "OBJECT_ID": "1993-036APY", "EPOCH": "2025-12-03T11:58:43.085856", "MEAN_MOTION": 14.90122639, "ECCENTRICITY": 0.00654009, "INCLINATION": 74.0435, "RA_OF_ASC_NODE": 61.2566, "ARG_OF_PERICENTER": 134.2302, "MEAN_ANOMALY": 226.4277, "EPHEMERIS_TYPE": 0, "CLASSIFICATION_TYPE": "U", "NORAD_CAT_ID": 35703, "ELEMENT_SET_NO": 999, "REV_AT_EPOCH": 66478, "BSTAR": 0.0011722584, "MEAN_MOTION_DOT": 0.00011791, "MEAN_MOTION_DDOT": 0}, "tle": {"line1": "1 35703U 93036APY 25337.49910979  .00011791  00000+0  11723-2 0  9991", "line2": "2 35703  74.0435  61.2566 0065400 134.2302 226.4277 14.90122639664787"}}, "geometry": {"type": "Point", "coordinates": [91.14569122230394, 63.873888262207615]}}, {"type": "Feature", "properties": {"norad_id": 35705, "name": "COSMOS 2251 DEB", "group": "cosmos-2251-debris", "lat": -74.14904384193926, "lon": 50.880970602753365, "alt_km": 685.3292743350148, "timestamp": "2025-12-06T09:34:17.310649+00:00", "meta": {"OBJECT_NAME": "COSMOS 2251 DEB", "OBJECT_ID": "1993-036AQA", "EPOCH": "2025-12-03T05:18:59.084352", "MEAN_MOTION": 14.71707631, "ECCENTRICITY": 0.0034156, "INCLINATION": 74.2742, "RA_OF_ASC_NODE": 154.0557, "ARG_OF_PERICENTER": 110.0272, "MEAN_ANOMALY": 250.4584, "EPHEMERIS_TYPE": 0, "CLASSIFICATION_TYPE": "U", "NORAD_CAT_ID": 35705, "ELEMENT_SET_NO": 999, "REV_AT_EPOCH": 85786, "BSTAR": 0.0035867, "MEAN_MOTION_DOT": 0.00022615, "MEAN_MOTION_DDOT": 0}, "tle": {"line1": "1 35705U 93036AQA 25337.22151718  .00022615  00000+0  35867-2 0  9994", "line2": "2 35705  74.2742 154.0557 0034156 110.0272 250.4584 14.71707631857866"}}, "geometry": {"type": "Point", "coordinates": [50.880970602753365, -74.14904384193926]}}, {"type": "Feature", "properties": {"norad_id": 35706, "name": "COSMOS 2251 DEB", "group": "cosmos-2251-debris", "lat": 60.90424122525715, "lon": 104.57641067540119, "alt_km": 870.9610695772462, "timestamp": "2025-12-06T09:34:17.310659+00:00", "meta": {"OBJECT_NAME": "COSMOS 2251 DEB", "OBJECT_ID": "1993-036AQB", "EPOCH": "2025-12-01T13:14:17.826144", "MEAN_MOTION": 13.65877076, "ECCENTRICITY": 0.03419141, "INCLINATION": 73.888, "RA_OF_ASC_NODE": 81.2903, "ARG_OF_PERICENTER": 133.1878, "MEAN_ANOMALY": 229.8353, "EPHEMERIS_TYPE": 0, "CLASSIFICATION_TYPE": "U", "NORAD_CAT_ID": 35706, "ELEMENT_SET_NO": 999, "REV_AT_EPOCH": 61909, "BSTAR": 0.0013112957, "MEAN_MOTION_DOT": 1.587e-05, "MEAN_MOTION_DDOT": 0}, "tle": {"line1": "1 35706U 93036AQB 25335.55159521  .00001587  00000+0  13113-2 0  9994", "line2": "2 35706  73.8880  81.2903 0341914 133.1878 229.8353 13.65877076619090"}}, "geometry": {"type": "Point", "coordinates": [104.57641067540119, 60.90424122525715]}}, {"type": "Feature", "properties": {"norad_id": 35711, "name": "COSMOS 2251 DEB", "group": "cosmos-2251-debris", "lat": 65.8151146529912, "lon": -87.80953282598728, "alt_km": 680.515750515603, "timestamp": "2025-12-06T09:34:17.310669+00:00", "meta": {"OBJECT_NAME": "COSMOS 2251 DEB", "OBJECT_ID": "1993-036AQG", "EPOCH": "2025-12-04T11:19:14.539584", "MEAN_MOTION": 14.63763095, "ECCENTRICITY": 0.0085131, "INCLINATION": 74.047, "RA_OF_ASC_NODE": 236.3228, "ARG_OF_PERICENTER": 339.3303, "MEAN_ANOMALY": 20.4427, "EPHEMERIS_TYPE": 0, "CLASSIFICATION_TYPE": "U", "NORAD_CAT_ID": 35711, "ELEMENT_SET_NO": 999, "REV_AT_EPOCH": 87650, "BSTAR": 0.00064568, "MEAN_MOTION_DOT": 3.517e-05, "MEAN_MOTION_DDOT": 0}, "tle": {"line1": "1 35711U 93036AQG 25338.47169606  .00003517  00000+0  64568-3 0  9995", "line2": "2 35711  74.0470 236.3228 0085131 339.3303  20.4427 14.63763095876508"}}, "geometry": {"type": "Point", "coordinates": [-87.80953282598728, 65.8151146529912]}}, {"type": "Feature", "properties": {"norad_id": 35716, "name": "COSMOS 2251 DEB", "group": "cosmos-2251-debris", "lat": -51.60024791834579, "lon": 47.57309748281041, "alt_km": 761.7786546834077, "timestamp": "2025-12-06T09:34:17.310679+00:00", "meta": {"OBJECT_NAME": "COSMOS 2251 DEB", "OBJECT_ID": "1993-036AQM", "EPOCH": "2025-12-02T22:21:42.031872", "MEAN_MOTION": 14.60067337, "ECCENTRICITY": 0.00884366, "INCLINATION": 73.9934, "RA_OF_ASC_NODE": 212.9707, "ARG_OF_PERICENTER": 56.5126, "MEAN_ANOMALY": 321.7811, "EPHEMERIS_TYPE": 0, "CLASSIFICATION_TYPE": "U", "NORAD_CAT_ID": 35716, "ELEMENT_SET_NO": 999, "REV_AT_EPOCH": 87484, "BSTAR": 0.00016847867, "MEAN_MOTION_DOT": 8.23e-06, "MEAN_MOTION_DDOT": 0}, "tle": {"line1": "1 35716U 93036AQM 25336.93173648  .00000823  00000+0  16848-3 0  9995", "line2": "2 35716  73.9934 212.9707 0088436  56.5126 321.7811 14.60067337874842"}}, "geometry": {"type": "Point", "coordinates": [47.57309748281041, -51.60024791834579]}}, {"type": "Feature", "properties": {"norad_id": 35717, "name": "COSMOS 2251 DEB", "group": "cosmos-2251-debris", "lat": 40.24872744322554, "lon": 35.190556554854766, "alt_km": 722.7320783267905, "timestamp": "2025-12-06T09:34:17.310689+00:00", "meta": {"OBJECT_NAME": "COSMOS 2251 DEB", "OBJECT_ID": "1993-036AQN", "EPOCH": "2025-12-03T10:50:01.737600", "MEAN_MOTION": 14.38379287, "ECCENTRICITY": 0.00765766, "INCLINATION": 74.1608, "RA_OF_ASC_NODE": 234.4851, "ARG_OF_PERICENTER": 96.9396, "MEAN_ANOMALY": 264.0477, "EPHEMERIS_TYPE": 0, "CLASSIFICATION_TYPE": "U", "NORAD_CAT_ID": 35717, "ELEMENT_SET_NO": 999, "REV_AT_EPOCH": 73966, "BSTAR": 0.0017319634, "MEAN_MOTION_DOT": 5.441e-05, "MEAN_MOTION_DDOT": 0}, "tle": {"line1": "1 35717U 93036AQN 25337.45140900  .00005441  00000+0  17320-2 0  9995", "line2": "2 35717  74.1608 234.4851 0076576  96.9396 264.0477 14.38379287739664"}}, "geometry": {"type": "Point", "coordinates": [35.190556554854766, 40.24872744322554]}}, {"type": "Feature", "properties": {"norad_id": 35718, "name": "COSMOS 2251 DEB", "group": "cosmos-2251-debris", "lat": -73.55497733789862, "lon": 66.27606240738848, "alt_km": 671.833877720157, "timestamp": "2025-12-06T09:34:17.310699+00:00", "meta": {"OBJECT_NAME": "COSMOS 2251 DEB", "OBJECT_ID": "1993-036AQP", "EPOCH": "2025-12-05T17:36:46.838880", "MEAN_MOTION": 14.68459598, "ECCENTRICITY": 0.00116835, "INCLINATION": 74.0307, "RA_OF_ASC_NODE": 143.5251, "ARG_OF_PERICENTER": 192.5822, "MEAN_ANOMALY": 167.5059, "EPHEMERIS_TYPE": 0, "CLASSIFICATION_TYPE": "U", "NORAD_CAT_ID": 35718, "ELEMENT_SET_NO": 999, "REV_AT_EPOCH": 65737, "BSTAR": 0.0029286421, "MEAN_MOTION_DOT": 0.00016991, "MEAN_MOTION_DDOT": 0}, "tle": {"line1": "1 35718U 93036AQP 25339.73387545  .00016991  00000+0  29286-2 0  9993", "line2": "2 35718  74.0307 143.5251 0011683 192.5822 167.5059 14.68459598657376"}}, "geometry": {"type": "Point", "coordinates": [66.27606240738848, -73.55497733789862]}}, {"type": "Feature", "properties": {"norad_id": 35721, "name": "COSMOS 2251 DEB", "group": "cosmos-2251-debris", "lat": -3.7786971864821175, "lon": -171.67069950009002, "alt_km": 681.5530048305191, "timestamp": "2025-12-06T09:34:17.310709+00:00", "meta": {"OBJECT_NAME": "COSMOS 2251 DEB", "OBJECT_ID": "1993-036AQS", "EPOCH": "2025-11-29T21:54:16.243200", "MEAN_MOTION": 14.34192363, "ECCENTRICITY": 0.01464404, "INCLINATION": 73.9503, "RA_OF_ASC_NODE": 201.3539, "ARG_OF_PERICENTER": 350.3358, "MEAN_ANOMALY": 9.498, "EPHEMERIS_TYPE": 0, "CLASSIFICATION_TYPE": "U", "NORAD_CAT_ID": 35721, "ELEMENT_SET_NO": 999, "REV_AT_EPOCH": 57605, "BSTAR": 0.0014885779, "MEAN_MOTION_DOT": 4.68e-05, "MEAN_MOTION_DDOT": 0}, "tle": {"line1": "1 35721U 93036AQS 25333.91268800  .00004680  00000+0  14886-2 0  9995", "line2": "2 35721  73.9503 201.3539 0146440 350.3358   9.4980 14.34192363576055"}}, "geometry": {"type": "Point", "coordinates": [-171.67069950009002, -3.7786971864821175]}}, {"type": "Feature", "properties": {"norad_id": 35724, "name": "COSMOS 2251 DEB", "group": "cosmos-2251-debris", "lat": 61.69041828222329, "lon": 102.64143868448788, "alt_km": 650.9925877478163, "timestamp": "2025-12-06T09:34:17.310719+00:00", "meta": {"OBJECT_NAME": "COSMOS 2251 DEB", "OBJECT_ID": "1993-036AQV", "EPOCH": "2025-11-30T08:09:18.426240", "MEAN_MOTION": 14.58149733, "ECCENTRICITY": 0.00590888, "INCLINATION": 74.0317, "RA_OF_ASC_NODE": 326.2795, "ARG_OF_PERICENTER": 123.6188, "MEAN_ANOMALY": 237.0635, "EPHEMERIS_TYPE": 0, "CLASSIFICATION_TYPE": "U", "NORAD_CAT_ID": 35724, "ELEMENT_SET_NO": 999, "REV_AT_EPOCH": 87348, "BSTAR": 0.00024156118, "MEAN_MOTION_DOT": 1.11e-05, "MEAN_MOTION_DDOT": 0}, "tle": {"line1": "1 35724U 93036AQV 25334.33979660  .00001110  00000+0  24156-3 0  9995", "line2": "2 35724  74.0317 326.2795 0059088 123.6188 237.0635 14.58149733873489"}}, "geometry": {"type": "Point", "coordinates": [102.64143868448788, 61.69041828222329]}}]}